[{"OBJECT_NAME":"STARLINK-6132","OBJECT_ID":"2023-090A","EPOCH":"2026-03-08T23:45:09.897696","MEAN_MOTION":15.02537202,"ECCENTRICITY":0.00012937,"INCLINATION":43.0046,"RA_OF_ASC_NODE":278.8411,"ARG_OF_PERICENTER":265.8826,"MEAN_ANOMALY":94.1869,"EPHEMERIS_TYPE":0,"CLASSIFICATION_TYPE":"U","NORAD_CAT_ID":57101,"ELEMENT_SET_NO":999,"REV_AT_EPOCH":15030,"BSTAR":2.3332381e-5,"MEAN_MOTION_DOT":1.12e-6,"MEAN_MOTION_DDOT":0},{"OBJECT_NAME":"UNKNOWN","OBJECT_ID":"","EPOCH":"2026-03-09T22:13:37.396992","MEAN_MOTION":14.94079285,"ECCENTRICITY":0.00368591,"INCLINATION":98.4007,"RA_OF_ASC_NODE":57.0532,"ARG_OF_PERICENTER":27.679,"MEAN_ANOMALY":332.6379,"EPHEMERIS_TYPE":0,"CLASSIFICATION_TYPE":"U","NORAD_CAT_ID":270309,"ELEMENT_SET_NO":999,"REV_AT_EPOCH":28085,"BSTAR":0.00073987035,"MEAN_MOTION_DOT":7.947e-5,"MEAN_MOTION_DDOT":0}]
